[
  {
    "house_number": "129",
    "street": "Anklaarseweg",
    "city": "Apeldoorn",
    "postal_code": "7316 MJ"
  },
  {
    "house_number": "195",
    "street": "Zilverling",
    "city": "Zaandam",
    "postal_code": "1507 CL"
  },
  {
    "house_number": "102",
    "street": "Spinnersdonk",
    "city": "Apeldoorn",
    "postal_code": "7326 HG"
  },
  {
    "house_number": "189",
    "street": "Sperwerhof",
    "city": "Schagen",
    "postal_code": "1742 EC"
  },
  {
    "house_number": "21",
    "street": "Burchtweg",
    "city": "Sint Maarten",
    "postal_code": "1744 JE"
  },
  {
    "house_number": "68",
    "street": "Bloemenzoom",
    "city": "Swifterbant",
    "postal_code": "8255 KM"
  },
  {
    "house_number": "111",
    "street": "Rivierdijk",
    "city": "Sliedrecht",
    "postal_code": "3361 BX"
  },
  {
    "house_number": "37",
    "street": "Jan Hanzenstraat",
    "city": "Amsterdam",
    "postal_code": "1053 SK"
  },
  {
    "house_number": "22",
    "street": "Prins Mauritsstraat",
    "city": "Axel",
    "postal_code": "4571 HB"
  },
  {
    "house_number": "60",
    "street": "Dom Huybenlaan",
    "city": "Egmond-binnen",
    "postal_code": "1935 BB"
  },
  {
    "house_number": "199",
    "street": "Dorpsstraat",
    "city": "De Bilt",
    "postal_code": "3732 HG"
  },
  {
    "house_number": "122",
    "street": "Leidijk",
    "city": "Wijnjewoude",
    "postal_code": "9241 WS"
  },
  {
    "house_number": "108",
    "street": "Zamenhoflaan",
    "city": "Zeist",
    "postal_code": "3706 VA"
  },
  {
    "house_number": "194",
    "street": "De Bente",
    "city": "Erica",
    "postal_code": "7887 GG"
  },
  {
    "house_number": "16",
    "street": "Halseweg",
    "city": "Zelhem",
    "postal_code": "7021 HX"
  },
  {
    "house_number": "68",
    "street": "Wilhelminastraat",
    "city": "S-gravendeel",
    "postal_code": "3295 AZ"
  },
  {
    "house_number": "61",
    "street": "Jasmijnstraat",
    "city": "Son",
    "postal_code": "5691 SE"
  },
  {
    "house_number": "57",
    "street": "Ringweg",
    "city": "Heel",
    "postal_code": "6097 EC"
  },
  {
    "house_number": "181",
    "street": "Breesloot",
    "city": "Broek Op Langedijk",
    "postal_code": "1721 HT"
  },
  {
    "house_number": "68",
    "street": "Roptastate",
    "city": "Leeuwarden",
    "postal_code": "8926 RS"
  },
  {
    "house_number": "46",
    "street": "Nijesyl",
    "city": "Oosthem",
    "postal_code": "8618 NV"
  },
  {
    "house_number": "180",
    "street": "Schoutenbosch",
    "city": "Castricum",
    "postal_code": "1901 PA"
  },
  {
    "house_number": "124",
    "street": "Limburghof",
    "city": "Helmond",
    "postal_code": "5709 CW"
  },
  {
    "house_number": "92",
    "street": "Meidoornlaan",
    "city": "Rosmalen",
    "postal_code": "5248 AJ"
  },
  {
    "house_number": "178",
    "street": "Van Hamelstraat",
    "city": "Soest",
    "postal_code": "3762 JH"
  },
  {
    "house_number": "86",
    "street": "Kooienswater",
    "city": "Zoetermeer",
    "postal_code": "2715 AG"
  },
  {
    "house_number": "2",
    "street": "Woudenbergstraat",
    "city": "Den Haag",
    "postal_code": "2546 VR"
  },
  {
    "house_number": "60",
    "street": "Frans Halsstraat",
    "city": "Sprang-capelle",
    "postal_code": "5161 EX"
  },
  {
    "house_number": "131",
    "street": "Bilderdijkstraat",
    "city": "Haarlem",
    "postal_code": "2013 EJ"
  },
  {
    "house_number": "26",
    "street": "Stationsweg",
    "city": "Nieuwleusen",
    "postal_code": "7711 EW"
  },
  {
    "house_number": "148",
    "street": "Bolkensteeg",
    "city": "Dongen",
    "postal_code": "5103 AA"
  },
  {
    "house_number": "135",
    "street": "Lange Vorststraat",
    "city": "Goes",
    "postal_code": "4461 JL"
  },
  {
    "house_number": "75",
    "street": "Frans Halsstraat",
    "city": "Eindhoven",
    "postal_code": "5613 KT"
  },
  {
    "house_number": "15",
    "street": "Alleenhouderstraat",
    "city": "Tilburg",
    "postal_code": "5041 LD"
  },
  {
    "house_number": "32",
    "street": "Dorpsstraat",
    "city": "Beugen",
    "postal_code": "5835 AG"
  },
  {
    "house_number": "98",
    "street": "Valkenboskade",
    "city": "Den Haag",
    "postal_code": "2563 JR"
  },
  {
    "house_number": "44",
    "street": "Moolnersrak",
    "city": "Menaam",
    "postal_code": "9036 MJ"
  },
  {
    "house_number": "131",
    "street": "Schaepmanlaan",
    "city": "Bloemendaal",
    "postal_code": "2061 LX"
  },
  {
    "house_number": "14",
    "street": "Rembrandtstraat",
    "city": "Zaltbommel",
    "postal_code": "5301 SV"
  },
  {
    "house_number": "70",
    "street": "Cruquiusstraat",
    "city": "Haarlem",
    "postal_code": "2012 GC"
  },
  {
    "house_number": "89",
    "street": "Wenckebachlaan",
    "city": "Groningen",
    "postal_code": "9728 JH"
  },
  {
    "house_number": "68",
    "street": "Delft",
    "city": "Assen",
    "postal_code": "9406 GJ"
  },
  {
    "house_number": "136",
    "street": "O. van Noortstraat",
    "city": "Zwolle",
    "postal_code": "8023 WJ"
  },
  {
    "house_number": "93",
    "street": "Hoofdkade",
    "city": "Stadskanaal",
    "postal_code": "9503 HG"
  },
  {
    "house_number": "197",
    "street": "Luciastraat",
    "city": "Beek",
    "postal_code": "6191 TA"
  },
  {
    "house_number": "5",
    "street": "De Peppels",
    "city": "Wanroij",
    "postal_code": "5446 WG"
  }
]
